[{"OBJECT_NAME":"STARLINK-6111","OBJECT_ID":"2023-090B","EPOCH":"2026-03-09T20:21:38.577888","MEAN_MOTION":15.02537156,"ECCENTRICITY":0.0001435,"INCLINATION":43.0042,"RA_OF_ASC_NODE":274.1027,"ARG_OF_PERICENTER":273.1088,"MEAN_ANOMALY":86.959,"EPHEMERIS_TYPE":0,"CLASSIFICATION_TYPE":"U","NORAD_CAT_ID":57102,"ELEMENT_SET_NO":999,"REV_AT_EPOCH":15043,"BSTAR":7.033728e-6,"MEAN_MOTION_DOT":-1.09e-6,"MEAN_MOTION_DDOT":0},{"OBJECT_NAME":"PEGASUS R\/B","OBJECT_ID":"1998-071B","EPOCH":"2026-03-09T18:27:50.570784","MEAN_MOTION":15.03047703,"ECCENTRICITY":0.0004531,"INCLINATION":69.9123,"RA_OF_ASC_NODE":198.9358,"ARG_OF_PERICENTER":7.5622,"MEAN_ANOMALY":352.5606,"EPHEMERIS_TYPE":0,"CLASSIFICATION_TYPE":"U","NORAD_CAT_ID":25561,"ELEMENT_SET_NO":999,"REV_AT_EPOCH":48091,"BSTAR":0.00030278547,"MEAN_MOTION_DOT":3.992e-5,"MEAN_MOTION_DDOT":0}]
